type,name,longitude,latitude,address,infos
2,上海话剧艺术中心,121.44129,31.21361,安福路288号,上海话剧艺术中心建于1995年1月23日，是由原上海人民艺术剧院（始创于1950年）和上海青年话剧团（始创于1957年）这两个著名的话剧表演团体合并而成。 上海话剧艺术中心是上海唯一的国家级话剧表演艺术剧院，也是代表中国最优秀的话剧团体之一。
1,上海老相机制造博物馆,121.44062,31.2136,安福路300号,上海老相机制造博物馆于2012年6月9日在黄浦区文化局第二文化馆正式开馆，并于6月10日起免费向公众开放。博物馆内设中国老相机制造厂家专区等，旨在向公众演绎相机的文化内涵和历史记忆。
3,长宁德必易园,121.42034,31.21529,安化路492号,德必易园地处长宁区龙头板块――中山公园商圈的中心地带，毗邻上海多媒体产业园，是上海多媒体产业园分园，是以多媒体产业为主的业态聚集地。
1,崇明博物馆,121.40164,31.61855,鳌山路696号,崇明博物馆始建于1959年7月，位于上海市文物保护单位――崇明学宫内，新馆经改造后于1999年12月对外开放，是―所县级综合性博物馆。
1,上海纺织博物馆,121.44595,31.24668,澳门路150号,上海纺织博物馆位于原上海申新纺织第九厂旧址，是一家地域性行业博物馆。
1,顾正红纪念馆,121.44265,31.24707,澳门路300号,顾正红纪念馆成立于2008年5月，是缅怀顾正红烈士英雄事迹、加强对后人的革命传统教育、深入开展五卅运动史、沪西革命史研究工作的重要革命纪念地。
3,中华1912文化创意产业园 ,121.4402,31.24589,澳门路477号,“中华1912”文化创意产业园是对具有百年历史文化的“中华书局”老厂房进行保护性修缮改造而成。
2,上海保利大剧院,121.26499,31.35374,白银路159号,上海保利大剧院毗邻上海国际赛车场，是上海地区标志性文化设施之一。剧院临湖而建，是国内首家拥有水景剧场的剧院。
3,东方慧谷―上海文化信息产业园 ,121.29188,31.33347,宝安公路2999号,上海文化信息产业园是以现代文化产业、信息产业、创意产业融合发展为特色的大型高新技术产业企业集聚区。
1,上海眼镜博物馆,121.47267,31.26009,宝昌路533号,上海眼镜博物馆共分两个楼层，由“眼睛的世界”“眼镜光学”“眼镜材料与检测”“眼镜的历史”“眼镜产业”“眼镜的设计与文化”等板块组成。
1,上海交响音乐博物馆 ,121.45003,31.21187,宝庆路3号,上海交响音乐博物馆于2017年10月1日起对外运营，是国内第一家以交响音乐为主题的博物馆，与上海交响乐团仅一墙之隔，紧邻上海音乐学院，建筑前身是目前上海正在逐渐消失的近代花园洋房。
1,上海解放纪念馆,121.49063,31.40012,宝杨路599号,上海解放纪念馆成立于2006年5月，位于宝山烈士陵园内，是烈士陵园的主要纪念设施之一。
2,黄浦剧场,121.47555,31.23839,北京东路780号,黄浦剧场，原名金城大戏院，始建于1933年。1957年批准其为人民淮剧团固定演出场所，之后改名为黄浦剧场。2009年被评为上海市爱国主义教育基地。
2,云峰剧院,121.44316,31.22612,北京西路1700号,云峰剧院每年接待大量外地剧团，尤其是全国各地的部队文艺表演院团演出。
1,上海自然博物馆,121.46264,31.23519,北京西路510号,上海自然博物馆拥有29万余件藏品，包括来自华东地区乃至全国及世界各地的自然界和人类历史遗物，位于地下二楼的“探索中心”是馆内特设的一处教育活动场所。
3,叁零・SHANGHAI 文化创意产业园,121.31028,31.01414,北松公路4915号,以影视产业辐射带动产业链发展，融入全新理念打造集影视拍摄、影视创意办公、影视旅游休闲、老上海文化体验旅游、艺术展览、婚庆拍摄为一体的主题式文化创意产业园。
4,上海影视乐园,121.31172,31.01045,北松公路4915号,上海影视乐园为中国十大影视基地之一，国内大部分讲述上海故事的年代影视剧都在这里拍摄过，如《情深深雨鳌贰渡戒》《新上海滩》等。
1,OCT当代艺术中心（上海）,121.47301,31.24154,北苏州路1016号,作为OCT当代艺术中心的上海分馆，OCAT上海馆是一处专注媒体艺术与建筑的专业非营利艺术机构
1,上海邮政博物馆,121.48554,31.24448,北苏州路250号,上海邮政博物馆为全国第一个邮政博物馆。2006年1月，由江泽民题写馆名的上海邮政博物馆正式向社会开放。
4,巧克力开心乐园,121.47525,31.18203,博成路100号,巧克力开心乐园是全国首家以“巧克力”、“甜点”、“饼干”等元素打造的大型创意主题乐园，主题理念是打造融入人们生活品质、以休闲为导向的“轻休闲”模式的主题乐园。
1,嘉定博物馆,121.252,31.38642,博乐路215号,嘉定博物馆成立于1959年，新馆于2013年6月正式对外开放。新馆采用双园两层（局部三层）布局设计，分为新建的现代功能与传统园林两部分。
1,韩天衡美术馆,121.25655,31.37857,博乐路70号,韩天衡美术馆主体建筑是在具有七十多年历史的“飞联纺织厂”原址上改建而成，保留了原建筑高大的烟囱、锯齿形厂房等文化沉淀，新增了黑白对比的钢结构框架，先进的文物展示系统，优美的绿化水景。
1,上海汽车博物馆,121.17017,31.27863,博园路7565号,上海汽车博物馆位于上海安亭，于2007年1月17日正式向公众开放，是中国首家专业汽车博物馆。
1,上海中医药博物馆,121.59897,31.1928,蔡伦路1200号,上海中医药博物馆成立于2003年，由医史博物馆、中药标本馆和校史馆组成。
1,四海壶具博物馆,121.35731,31.25595,曹安路1978号,四海壶具博物馆始建于1991年，由著名壶具收藏家、紫砂陶艺家许四海先生创立，1993年建成正式对外开放。博物馆展出了从新石器到现代的各类壶具共三百余件，构成了一部脉络清晰的中国陶瓷发展史。
1,上海电线电缆博物馆,121.34518,30.798078,漕廊公路2888号,上海电线电缆博物馆建成于2006年10月，坐落于上海金山亚龙现代工业园区，是中国首家电线电缆博物馆。
2,上海大舞台,121.438368,31.181496,漕溪北路1111号,上海大舞台是在上海体育馆保留原体育馆功能的基础上于1999年10月改建而成的。
1,上海电影博物馆,121.43813,31.18621,漕溪北路595号,上海电影博物馆是一座融展示与活动、参观与体验为一体，涵盖文物收藏、学术研究、社会教育、陈列展示等功能的行业博物馆。
3,静安现代产业园 ,121.45351,31.23904,昌平路68号,静安现代产业园由老厂房改建而成，外观时尚，各层面采用中、西不同风格的装潢，适合不同品位人士的需求。
3,传媒文化园,121.43703,31.23256,昌平路990号,传媒文化园前身是上海窗钩厂，从2001年7月起向都市型园区转型，现已改建为以影视制作、网络图片、艺术摄影、工业创意设计、建筑创意设计等为特色的都市产业园区，老厂换了新貌。
3,800秀创意产业集聚区,121.44315,31.23369,常德路800号,800秀前身为人民电机厂，现以多功能秀场为中心，创意办公与休闲餐饮区域分布在“南北两翼”，将秀展、时尚发布与商务、休闲有机地结合。
2,上海歌剧院,121.44574,31.21708,常熟路100弄10号,上海歌剧院成立于1956年，前身是1935年成立的新安旅行团，经历半个多世纪的发展，在歌剧、舞剧、音乐剧、合唱、交响乐等领域都留下了辉煌的足迹。
1,上海国际酒文化博物馆,121.1768,31.07718,辰花路3888号辰山植物园,上海国际酒文化博物馆所在的辰山，坐落在上海境内唯一的富氧山脉群中。上海国际酒文化博物馆是中国大陆第一座完全以世界各国酒文化为展示主体的行业性博物馆。
1,东方美术馆,121.78099,31.04169,城南路1385弄2号,东方美术馆成立于2005年3月，是由上海生南房地产开发（集团）有限公司出资设立的一所公益性社会文化事业机构。
3,63号设计创意工场,121.50105,31.27922,赤峰路63号,63号设计创意工场是经杨浦区人民政府批准于2001年12月成立的，力主推进大专院校、科研院所科技成果转化，推进知识转化为生产力，在杨浦知识创新中扮演知识产业化试验基地的角色。
1,崇明美术馆,121.4288,31.61934,崇明大道7897号,崇明美术馆于2012年11月30日正式对外开馆，包括大小展厅各一，固定常设展“黄丕谟艺术陈列”，下设行政部、展览部、典藏艺术部、教育公关部。
4,上海迪士尼乐园,121.66034,31.14419,川沙新镇黄楼社区,上海迪士尼乐园是中国内地首座迪士尼主题乐园，于2016年6月16日正式开园，拥有七大主题园区：米奇大街、奇想花园、探险岛、宝藏湾、明日世界、梦幻世界、玩具总动园。
3,张江创星园,121.58436,31.19376,达尔文路88号,“创星园”是经国家科技部认定的“国家高新技术创业服务中心”，是国家级科技企业孵化器，是中国著名的高科技园区。
4,乐高LEGO超级室内游乐园,121.39528,31.2227,大渡河路170号,乐高超级室内游乐园设于长风大悦城购物中心内，于2016年4月2日开园。
4,上海长风海洋世界,121.39698,31.22471,大渡河路451号,长风海洋世界主体建筑位于银锄湖底13米处，是集大型海洋动物表演与水族馆鱼类展览为一体的综合海洋主题公园，为全国青少年科普教育基地、上海市专题性科普场馆。
1,蕙风美术馆,121.55557,31.22743,丁香路1089弄1号,蕙风美术馆成立于2006年，为画家夏蕙瑛自行创立，属非盈利艺术机构，座落于浦东新区陆家嘴金融区
2,上海东方艺术中心,121.54149,31.22282,丁香路425号,上海东方艺术中心于2005年7月1日正式运营，是上海的标志性文化设施之一。从高处俯瞰，东艺五个半球体依次为：正厅入口、演奏厅、音乐厅、展厅、歌剧厅，外形宛若一朵美丽的“蝴蝶兰”。
3,时尚谷创意园,121.16719,31.03069,鼎源路618弄,时尚谷创意园是一个专业化的纺织服装时尚设计园区。
3,映巷创意工场,121.42387,31.20744,定西路727号,上海映巷创意工场前身为上海塑料模具厂，2008年被翻新改建成，风格式样以“泛视觉”为主导。
3,中国(上海)网络视听产业基地,121.4635,31.02113,东川路555号,基地于2010年2月由上海市文化广播影视管理局与上海紫竹高新技术产业开发区共同建设，力争在5-10年内建成为年产值超百亿、达到国际一流水平的网络视听产业集聚区。
1,陆俨少艺术馆,121.25352,31.38572,东大街358号,陆俨少艺术院坐落在上海市历史文化名镇――嘉定，与宋代孔庙、法华塔及明代园林秋霞圃，构成一道突显嘉定深厚文化底蕴的靓丽的文化风景线，集收藏、研究和展示陆俨少书画艺术为一体，举行各类高层次展览及学术研讨活动的场所。
3,空间188,121.48067,31.26718,东江湾路188号,空间188创意产业园的前身是上海无线电八厂，2005年经上海市经委授牌，成为上海市第二批创意产业园区。
1,上海翰林匾额博物馆,121.57939,31.26962,东井街122号,上海翰林匾额博物馆创建于2005年，是上海市非物质文化遗产。馆藏品超过1200方，是中国专业从事匾额搜救、保护、展览、研究于一体的主题型博物馆。
2,上海城市剧院,121.38961,31.10507,都市路4889号,上海城市剧院由闵行区政府出资建造，由东上海国际文化影视集团受托经营管理，于2009年11月开始运营。剧院定位“充满活力、时尚经典、品牌现代”。
1,上海多伦现代美术馆,121.48308,31.26195,多伦路27号,上海多伦现代美术馆主要举办中国当代艺术的展演活动，是中国第一个为当代艺术服务的专业化现代美术馆。
1,现代儿童美术馆,121.48328,31.26193,多伦路27号,现代儿童美术馆开馆于2006年12月28日，坐落在上海多伦路文化名人街，是中国大陆第一座儿童美术馆，它的建立填补了我国儿童美术教育史上的一个空白。
3,上海双创产业园,121.52169,31.21421,峨山路613号,园区在2008年进行了整体设计，实施全方位改造，打造成具有鲜明特色的创意产业园――“双创基地”（创业+创意），形成了以大学生创意创业为主的计算机维修、信息维护、网络应用等现代服务业。
3,德必法华525创意树林 ,121.4254,31.20496,法华镇路525号,法华525创意树林是始建于公元970年“法华寺”的原址，是以禅意为主题创建的创意园区，各国的建筑，不同的文化在此聚集。
3,徐汇软件基地,121.42692,31.19396,番禺路1028号,徐汇软件基地成立于1999年，是一个以软件为主题的、坐落在上海城市中心的高科技园区。
3,海上海,121.50899,31.2671,飞虹路568弄,海上海前身是上海工具厂，是由住宅、LOFT、商业三大物业形态及海上剧场、海上展馆、海上讲堂三大文化建筑组合而成的国际创意社区。
2,贺绿汀音乐厅,121.45435,31.21344,汾阳路20号,音乐厅坐落于上海音乐学院内，建筑舞台空间与观众空间融为一体，没有幕布，完全用自然声来演出，是一个专业的交响乐和室内乐音乐厅。
1,上海工艺美术博物馆,121.45405,31.21037,汾阳路79号,上海工艺美术博物馆主楼分设织绣、雕刻、民间工艺三大展示厅，陈列着近300件作品，从中可以映现上海工艺美术发展的脉络。
1,余德耀美术馆,121.46213,31.17075,丰谷路35号,余德耀美术馆成立于2014年5月，是由印尼爱国华侨余德耀先生创办的私人美术馆，由原龙华机场的大机库改建而成，坐落于西岸文化走廊。
1,上海昆虫博物馆,121.45644,31.19331,枫林路300号,上海昆虫博物馆隶属中国科学院上海生命科学研究院，其前身是法国神父韩伯禄（P. Heude）1868年筹建的上海震旦博物馆(Musee Heude)昆虫部，2001年并入中国科学院生命科学研究院植物生理生态研究所，2002年组建上海昆虫博物馆。
1,上海周虎臣曹素功笔墨博物馆,121.48243,31.2337,福州路429号,上海周虎臣曹素功笔墨博物馆以上海著名的老字号“周虎臣”“曹素功“的历史发展和传世遗存为主线，探究上海以至全国文房四宝发展的轨迹，展示中国文房四宝的传统技艺和文化。
1,春美术馆,121.4786,31.23226,福州路655号,春美术馆成立于2014年3月，以高品位与学术性为办馆宗旨，开展研究、收藏、展览、交流及艺术普及教育工作。
2,天蟾逸夫舞台,121.47754,31.23193,福州路701号,天蟾逸夫舞台始建于1925年，位于上海市福州路701号，隶属于上海京剧院，是上海唯一一家戏曲专用演出剧场。之所以取名“天蟾”，意借神话“月精蟾蜍食月中桂树”之典故。
1,上海驰翰美术馆,121.4841,31.21959,复兴东路1117号,上海驰翰美术馆于2013年11月成立，向公众免费开放的艺术展览和讲座，美术馆活动现已被列入“上海市民文化节”内容。
2,上海大戏院,121.46022,31.21345,复兴中路1186号,上海大戏院始建于1942年，初名银光大戏院。2016年末，上海大戏院完成重建，将上演以主流经典戏剧、上海人文戏剧、创新实验戏曲为主的各类演出，同时也将成为观众交互新空间。
1,明圆美术馆,121.45882,31.21275,复兴中路1199号,上海明圆美术馆成立于2004年，展馆有效面积600平方米，是上海市中心繁华区域为数不多的非盈利性专业型美术馆。
2,上海交响乐团音乐厅,121.45135,31.21134,复兴中路1380号,上海交响乐团音乐厅由世界级大师矶崎新和丰田泰久领衔设计，是国内第一个建在弹簧上的“全浮建筑”。音乐厅运用最先进的多媒体技术，大厅内10个反声板可以同时投影画面，与世界各地任何场地进行双向传输同步演出。
1,上海金融博物馆,121.47622,31.21652,复兴中路301号,金融博物馆暨银行博物馆，前身上海银行博物馆，2000年正式开馆，是中国工商银行创办的全国首家金融行业博物馆。
1,上海震旦博物馆,121.49954,31.23485,富城路99号,上海震旦博物馆是上海陆家嘴地区第一座私立艺术博物馆，于 2013年 10 月正式对外开放。博物馆以历史与艺术并重，集典藏、研究、展览、营运、传扬为一体。
1,藏真海派美术馆,121.452672,31.217549,富民路291号,藏真海派美术馆展厅和传统意义上的美术馆展厅不尽相同，它不是光洁平整的白盒子，而更像是一个传统艺术品收藏的复合式展厅，各个时代的青铜古玩、石山子、瓷器散布于展厅的各个角落。
3,上海仓城影视文化产业园区,121.21889,30.98704,富永路425弄,上海仓城影视文化产业园区于2009年3月，由市委宣传部、市经委、市文广局、市新闻出版局共同挂牌成立，是市首批15家文化产业园区之一，更是上海市内目前唯一一家以影视文化作为主导产业的文化园区。
1,东方乐器博物馆,121.44428,31.20369,高安路18弄20号,东方乐器博物馆分为中国古代乐器、中国现代乐器、少数民族乐器和外国民族乐器四个展区及一个多媒体展示厅，馆藏乐器约400多件(套)。
3,中国北斗产业技术创新西虹桥基地,121.29464,31.16448,高泾路599号,中国北斗产业技术创新西虹桥基地是上海市卫星导航产业重点发展的两大产业基地之一，由创新孵化区、总部研发与商贸区和配套生产加工区三个功能互补的园区有机组成。
2,上海马戏城,121.45154,31.27812,共和新路2266号,上海马戏城素有“中国马戏第一城”的美誉， 其独特的建筑造型，金灿灿的穹型屋顶，成为上海国际文化都市又一标志性建筑。
1,上海市群众艺术馆,121.42476,31.18577,古宜路125号 ,上海市群众艺术馆建于1956年12月30日，是全市群众文化创作、培训、活动、理论研究等业务工作的组织指导和协调机构，是引领示范全市群众文化发展的重要基地。
3,创意仓库,121.4686,31.23994,光复路195号,创意仓库原四行仓库，始建于1927年。园区在追求现代化城市改造的同时，最大限度地保留了一大批建筑风格独特、具有历史价值的老厂房、老仓库。
1,苏州河工业文明展示馆,121.37962,31.22087,光复西路2690号,苏州河工业文明展示馆于2014年5月18日“国际博物馆日”建成开放。室内以历史为时间轴、以苏州河为空间轴，展示了上海开埠至今苏州河沿线的工业文明；室外展示以大型工业机器展示、场景复原和雕塑作品等形式再现工业文化的历史遗韵。
3,上海明珠创意产业园 ,121.48363,31.29276,广纪路738号,上海明珠创意产业园是虹口区政府批准的创意产业集聚区，主要有IT、数字传媒、动漫、科技、设计等企业。
3,上海智慧桥创意产业园 ,121.48009,31.28698,广灵四路116号,上海智慧桥创意产业园原虹口区建材厂，2006年7月建成营运，是上海市经济委员会授牌最早的十八家创意产业集聚区之一，也是上海市数字媒体（TMT）产业园区的主题园区之一。
3,上海多媒体谷,121.43955,31.27735,广中西路757号,上海多媒体谷是一个以发展新兴科技产业为主，集创意创新、企业孵化、创业服务，创新人才培育、科技成果转化等功能为一体的高科技园区。
3,浦原科技创意产业园 ,121.41818,31.16824,桂林路396号,园区立足主要定位以原创设计为核心，以研发设计创意为特色的软件开发和仪器仪表设计集聚区，已形成了在“孵化”集聚产业企业的同时，“孵化”壮大自身高科技产业的特色园区。
3,博大汽车公园,121.47312,31.17822,国展路189号,博大汽车公园是经世博办批准，集汽车产业技术研发、品牌展示、改装贸易服务、进口保税等多种功能为一体的国际化汽车主题园区。
3,同乐坊,121.44402,31.23648,海防路555号,同乐坊是昔日的“弄堂工厂”集中区域，其改造，以整旧如旧为原则、制造快乐为宗旨，外部环境保持上海传统弄堂工业厂房的特色，内部改造成为集国际性、文化性、互动性于一体的艺术创意、时尚创意空间。
1,上海知青博物馆,121.51324,30.81574,海乐路200号,知青博物馆是一个反映40多年前上海知识青年上山下乡历史的综合性大型展馆，于2011年11月建成开馆，2014年8月10日正式挂牌。
3,优族173文化创意产业园区,121.49977,31.29501,邯郸路173号,优族173创意产业园区原址为30年满负荷运转的上海电力建设修造厂，现已形成集办公、培训、IT设计研发、信息交流为一体的创意集聚地。
4,锦江乐园,121.40929,31.13968,虹梅路 201号,锦江乐园是位于上海市西南郊的一座游乐场，1985年开放，是上海市第一家大型现代化游乐园。
3,M50西郊文化休闲园,121.38896,31.1907,虹许路731号,西郊鑫桥创意园前身是上海十四羊毛衫厂，是闵行区第一家创意产业园，也是经上海市经委批准授牌的创意产业集聚区。
1,上海外滩美术馆,121.48753,31.24122,虎丘路20号,上海外滩美术馆坐落于上海黄浦江与苏州河交汇之处的外滩源片区，曾是中国最早的博物馆之一，即上海博物院。
1,上海崧泽遗址博物馆,121.111741,31.137224,沪青平公路3993号,上海崧泽遗址博物馆于2014年5月正式开馆，博物馆中展示了众多“上海第一”，同时还展出了炭化稻谷遗存，这是上海出土的最早的人工栽培水稻，被称为“上海第一稻”。
3,新慧谷文化创意产业园,121.44367,31.26674,沪太路799号,新慧谷科技创意产业园原延中复印机厂，是由上海交大科技园、上海新徐汇集团和闸北区科技创业中心共同组建的产业园区。
3,上海南翔智地文化产业园,121.17457,31.14685,沪宜公路1188号,南翔智地企业总部园于2008年建立，定位于以文化信息及多媒体影视为先导的生产性服务功能区，主要面向企业总部、文化创意、会展博览、信息服务、新能源科技研发、电子商务等行业。
1,上海当代艺术博物馆,121.49841,31.20105,花园港路200号,上海当代艺术博物馆由原南市发电厂改造而来，成立于2012年10月，坐落于黄浦江畔，内部最高悬挑27米。高达165米的烟囱既是上海的城市地标也是一个独立的展览空间。
1,青浦区博物馆,121.13431,31.15149,华青南路1000号,上海青浦区博物馆原址设在青浦区城隍庙内，其前身为始建于1958年的青浦县博物馆。2004年12月，在上海市历史文化名城命名十八周年之际，青浦区博物馆迁址到青浦区崧泽广场重建后正式对外开放。
1,上海交通大学董浩云航运博物馆,121.43535,31.20017,华山路1954号,董浩云航运博物馆楼高二层，西式建筑，内有天井，展厅面积600平方米，内有中国航运史馆和董浩云陈列室，将作永久陈列。
1,上海蔡元培故居陈列馆,121.44766,31.21895,华山路303弄16号,上海蔡元培故居是被毛泽东同志誉为“学界泰斗，人世楷模”的蔡元培先生在上海的最后一处住所，在目前国内蔡元培故居中保存状况最为完好。
2,上戏实验剧院,121.43996,31.21664,华山路630号,上海戏剧学院上戏剧院原为上海戏剧学院实验剧院，建成于1986年，当时是上戏唯一的大型教学与教学实习的重要场地，也是学院设备完善的演出实习基地。
2,上海儿童艺术剧院,121.49501,31.19672,华山路643号,中福会儿童艺术剧院马兰花剧场设二层观众席，场适合戏剧、戏曲、歌舞剧、室内乐等演出功能需要，及会场、会展等的使用功能。
3,中国・梦谷―上海西虹桥文化产业园,121.26611,31.19935,华徐公路888号,上海西虹桥文化产业园融合发展电子商务、文化创意、现代商贸和信息科技，以搭建服务全园区的创业孵化、金融投资、现代物流等平台为支撑，形成商流互动平台与产业生态圈。
1,上海东方地质科普馆,121.78137,31.17667,华洲路南1号,上海东方地质科普馆于2004年12月正式对外开放，是本市唯一的一家以民营资本运作的集奇石展览和地质科普为一体的科普基地。
3,安垦绿色仓库,121.451633,31.240463,淮安路668号,安垦绿色仓库原是上海百联下属分公司的储备仓库，于2008年7月投资开发改建为“安垦绿色”创意产业集聚区。在创意园区的改建过程中，安垦绿色遵循修旧如旧的原则，从工业历史的角度出发，采用德国包豪斯设计风格，外立面装修简洁但保留工业痕迹。
3,3乐空间,121.45081,31.23943,淮安路735号,3乐空间产业园于2006年底竣工，由原上海第九制药厂一车间改建而成，园区以文化产业、文化传媒、医疗器械、生化制品为产业导向，是静安区重点规划建设的一个综合产业园区。
1,上海城市雕塑艺术中心,121.42494,31.19902,淮海西路570号,上海城市雕塑艺术中心坐落于原上钢十厂内废弃的冷轧带钢厂。
3,新十钢・红坊文化创意园,121.42437,31.20044,淮海西路570号,红坊集聚区的前身是始建于1956年的原上钢十厂冷轧带钢厂厂房群，2005年在借鉴国际上利用废弃工业建筑改建为公共艺术中心成功经验的基础上，将原废弃的厂房，进行保护性改造和功能重塑，改造成为上海城市雕塑艺术中心。
1,徐汇艺术馆,121.44815,31.21027,淮海中路1413号,徐汇艺术馆建于1932年， 前身为 “鸿英图书馆”，2005年12月正式对外开放。建筑主体是一座三层砖混结构的花园洋房，红砖砌筑的展厅拱门、原汁原味的木质楼梯与高品味的艺术展览相得益彰，是淮海路上一处难得的精致优雅艺术殿堂。
1,上海宋庆龄故居纪念馆,121.43876,31.20422,淮海中路1843号,上海宋庆龄故居纪念馆于1988年5月正式开放，是孙中山先生的夫人――宋庆龄长期居住和从事国务活动的重要场所。
1,中国共产党第一次全国代表大会会址纪念馆,121.47523,31.22014,黄陂南路374号,中国共产党第一次全国代表大会会址纪念馆建于1920年秋，是一幢典型的石库门建筑。中共一大会址属事件类纪念性博物馆，其主要任务是对中共一大会址的保护管理。
3,卓维700,121.47701,31.21412,黄陂南路700号,园区积聚了瓷器展示、陶瓷制作、影视、摄影等文化产业链等为主体的现代时尚文化品牌创意产业企业。
2,长江剧场,121.47116,31.23359,黄河路21号,长江剧场位于黄河路21号，前身是著名的卡尔登大戏院，于1923年建成，素有“中国话剧大本营”、“东方巴黎的名片”之美誉。
1,上海中华印刷博物馆,121.15156,31.16875,汇金路889号,中华印刷博物馆是目前上海报业集团旗下唯一的博物馆，所属的映美术馆因其具有艺术品高仿复制企业技术工艺资源而更具特色。
3,中广国际广告创意产业园 ,121.21104,31.41724,汇源路55号,中广国际广告创意产业园区成立于2007年，是创意科技产业的集聚中心、亚太创意科技的领先高地和全球创意科技的交流平台。
3,中国出版蓝桥创意产业园 ,121.48398,31.29479,纪念路500号,中国出版蓝桥创意产业园是中国出版集团公司在上海的分支机构，是利用自有土地规划建设的一个以内容产业和新媒体为目标定位、以数字出版为特色的创意产业园。
2,上剧场,121.43963,31.19334,嘉浜路1111号,上剧场位于徐家汇商圈美罗城5楼，将剧场放在一座集购物、餐饮为一体的大型商场之中，体现了上剧场所代表的全新理念，即把最上乘的戏剧演出巧妙融入到现代都市生活的中心。
3,尚街Loft时尚生活园区,121.46009,31.20465,嘉善路508号,尚街Loft时尚生活文化产业园于2007年12月正式开业，以服饰创意设计为核心，以时尚产业平台为特色，经营特色主要由时尚服饰、时尚设计、时尚生活、时尚办公、时尚秀场五大类组成。
1,上海壹号美术馆,121.47165,31.21049,建国中路1号,上海壹号美术馆成立于2008年3月，拥有上下两层楼，一层分东馆和西馆，两馆具有东方的神韵与西方的现代质感融汇交织，神秘而又典雅；二层有大小展厅6个。
3,8号桥,121.47133,31.2106,建国中路8-10号,8号桥的成功改造为保留上海旧厂房的历史风貌，注入新价值提供了参考作用，成为了上海创意产业的孵化器、时尚创意设计人士的交流平台。
2,艺海剧院,121.45244,31.235,江宁路466号,“艺海”寓意“艺术的海洋、海纳百川”。艺海剧院兼具芭蕾、戏曲、话剧、室内音乐及综艺节目的演出功能，是一座崭新智能化、现代化的艺术剧院。
2,美琪大戏院,121.45595,31.22941,江宁路66号,美琪大戏院建于1941年，建成之时，定名美琪，原是取其“美轮美奂，琪玉无瑕”之意。
3,华联创意广场 ,121.42488,31.22668,江苏北路125号,华联创意广场位于江苏北路125号，原为“海鸥酿造五厂”，现为以现代服务业为中心的经济园区。
3,汇智创意园,121.4384,31.2357,胶州路757号,"汇智创意园前身为上海鸿新色织厂, 2002年9月1日正式开园，2003年被市政府列入都市工业园区。园区业态定位文化传媒、产品设计、软件开发等。"
1,奉贤区博物馆,121.47696,30.91738,解放东路871号,奉贤区博物馆始建于20世纪60年代，文革时期停办，1994年5月20日奉贤博物馆重建。博物馆藏文物有陶瓷、书画、造像、青铜等类别共计2800余件，另有江南土布服饰的专题收藏，富有民间特色。
3,e3131电子商务创新园,121.35328,31.24271,金沙江路3131号,e3131电子商务创新园前身是上海嘉真经济发展有限公司1995年建设的旧工业老厂房，2008年7月嘉定区为布局产业转型。
1,金山区博物馆,121.34896,30.74482,金山大道1800号,金山区博物馆为地方史志类公益性博物馆，博物馆除本馆外，下辖上海南社纪念馆、金山卫抗战遗址纪念园、金山规划展示馆等场馆，涵盖3个上海市级爱国主义教育基地和1个金山区级爱国主义教育基地。
1,上海油画雕塑院美术馆,121.40025,31.19877,金珠路111号,上海油画雕塑院美术馆成立于1965年，曾名为上海油画雕塑创作室，是新中国第一个以油画、雕塑为主体的专业创作和研究机构。
2,人民大舞台,121.47796,31.23431,九江路663号,人民大舞台于2011年建成，整体环境具有欧洲巴洛克风韵，兼具歌剧、芭蕾等国内外各类演出及其他综艺活动的演出功能。
1,恒源祥香山美术馆,121.47767,31.23454,九江路686号,恒源祥香山美术馆是由恒源祥香山画院投资兴建的专业美术馆.
3,江南智造,121.48242,31.20163,局门路427号,“江南智造”建于2009年，是上海市认定的“一区多园”式的创意产业集聚区，以创意类的广告、设计、传媒类公司为主。
2,可・当代艺术中心,121.41688,31.210926,凯旋路613号,可当代艺术中心建成于2007年7月，是沪上少有的涵盖当代艺术各个品类的综合艺术中心，坐落于凯旋路武夷路的创邑SPACE|源园区内。
2,金橙剧院,121.52832,31.27838,控江路1155号,金橙剧院（原杨浦大剧院）地处杨浦区控江路最繁华的地段之一，于1996年建成，是杨浦区标志性的演出场所之一。
1,中共二大会会址纪念馆,121.46648,31.22423,老成都北路7弄30号,中共二大会址纪念馆原名辅德里，始建于1915年，由两排老石库门建筑组成，2009年修缮改扩建后的新馆免费对公众开放。
3,慧谷软件园 ,121.39487,31.21264,乐山路33号,园区定位为科技企业孵化器，并于1999年成立上海慧谷高科技创业中心，中心是由上海交通大学、上海市科学技术委员会和徐汇区人民政府联合组建的社会公益性国家级科技企业孵化器。
2,1933空中剧院,121.49222,31.25506,溧阳路611号,1933空中剧院位于1933老场坊1号楼4楼，拥有600平米的大型玻璃舞台，透明炫目，宛如置身于空中的舞台。
3,1933老场坊,121.49179,31.25449,溧阳路611号,1933老场坊前身是上海工部局宰牲场，于1933年建造完成，并以“远东第一”名噪一时，该建筑历经76多年风雨的洗礼，依旧保存完好，并先后被列为“虹口区历史遗址纪念地”和上海“优秀历史建筑”。
3,半岛湾时尚文化创意产业园,121.48884,31.25492,溧阳路735号,半岛湾时尚文化创意产业园原上海电气集团下属辛克试验机厂，是虹口区正在筹划的上海音乐谷的主要在建项目。
1,中国民族乐器博物馆,121.34571,31.14432,联明路400号,上海民族乐器博物馆由上海民族乐器一厂于1981年创意筹建，1986年10月正式开馆，馆名由著名书法家韩天衡题写，馆内藏有一百余品种，三百多件实物。
3,国家音乐产业基地上海虹口园区 ,121.49189,31.25668,辽宁路46号,国家音乐产业基地于2009年11月建立，是全国首个正式获批的国家级音乐产业集聚区，在全国率先开展聚集海内外一流音乐制作人和原创歌手，延伸音乐产业链“先行先试”的实验田。
4,上海冰雪世界,121.89945,30.93521,临港新城主城区,上海冰雪世界预计2019年开业，是以滑雪度假为主题的乐园，设有全冰酒店、音乐剧表演剧场、旋转体验剧场、IMAX影院等多种娱乐设施。
3,珠江创意中心,121.44995,31.28417,灵石路695号,合金工厂（珠江创意中心）是由上海合金材料总厂原有厂房及仓库的基础上，以创新和传承为主题，将其改造为创意科技产业园区，是上海市第二批授牌创意产业聚集区之一。
3,2577创意大院,121.45194,31.17865,龙华路2577号,2577创意大院最早为清朝洋务运动时期李鸿章创办的江南枪炮局，也是第一家中国工业设计院所在地，有“中国西洋艺术摇篮”之誉，是中国现代工业设计的发源地。
1,上海龙华烈士纪念馆,121.44945,31.17539,龙华西路180号,上海龙华烈士纪念馆成立于1988年1月，陈列设计风格富有现代气息，辅助陈列品有全国名家精心创作的国画、油画、木刻、丝毯壁画和锻铜浮雕等。
1,上海摄影艺术中心,121.4629,31.16811,龙腾大道2555号,上海摄影艺术中心由国际著名摄影艺术家刘香成先生创办、美国建筑师组合Sharon Johnston &Mark Lee担纲设计，总建筑面积500平方米，旨在打造上海首家具有美术馆规格的摄影艺术场馆。
1,龙美术馆（西岸馆）,121.46491,31.18411,龙腾大道3398号,龙美术馆以其私人收藏为基础，长期致力于专业的艺术展览、研究、收藏以及公共文化教育的传播。
1,江南造船博物馆,121.47643,31.19781,鲁班路600号,江南造船博物馆成立于2004年，前身是江南造船厂厂史博物馆，是上海唯一的跨越三个世纪的造船行业大型博物馆。
1,上海吴昌硕纪念馆,121.50698,31.23669,陆家嘴东路15号,上海吴昌硕纪念馆始建于1994年，馆舍造型仿上海山西北四季吉庆里吴昌硕故居。纪念馆以纪念吴昌硕海纳百川的海派人文精粹为宗旨，为艺术爱好者感受海派文化的深厚底蕴与经久不衰的艺术魅力搭建共享平台。
4,上海海洋水族馆,121.50206,31.24077,陆家嘴环路1388号,上海海洋水族馆紧邻东方明珠塔，由新加坡星雅集团和中国保利集团，联合投资5500万美元打造而成，于2002年2月对公众开放。
1,历道证券博物馆,121.508133,31.239132,陆家嘴环路958号,历道证券博物馆成立于2004年，通过丰富、珍贵的藏品，展现了一部自清代以来中国证券发展的百年历史。博物馆通过拍卖的方式，从民间抢救性收购了一批中国自晚清时期、民国时期（含解放区）、新中国建设初期以及改革开放后的证券和物品数千件。
1,龙美术馆（浦东馆）,121.57415,31.21578,罗山路2255弄210号,龙美术馆以其私人收藏为基础，长期致力于专业的艺术展览、研究、收藏以及公共文化教育的传播。龙美术馆(浦东馆)于2012年12月18日正式开馆，主体建筑共分四层。
3,上海名仕街创意产业园,121.44855,31.26257,洛川中路1158号,上海名仕街创意产业园区是针对创意型产业定向规划、设计、建造的创意产业集聚区，已经取得了国家发改委授予的“上海现代服装产业小企业创业基地”。
3,国家对外文化贸易基地（上海),121.92686,30.8936,马吉路2号,作为首个国家对外文化贸易基地，将充分利用外高桥保税区的特殊区域优势，为全国文化企业提供进出口代理、产品展示、设备租赁、商贸咨询、版权交易、演艺经纪、影视后期制作、影视策划及创意设计等全方位的服务和支持。
1,上海毛泽东旧居陈列馆,121.46028,31.22614,茂名北路120弄5、7、9号,上海毛泽东旧居是毛泽东第九次来上海工作期间（1924年2月至年底）居住的地方，现作为上海对外开放的毛泽东寓所纪念地之一。
2,兰心大戏院,121.46048,31.22101,茂名南路57号,兰心大戏院建于1930年，1952年曾更名为上海艺术剧场，1991年恢复原名。兰心大戏院是上海开埠至今历史最久的剧场之一。
1,上海世博会博物馆,121.48215,31.19438,蒙自路818号,上海世博会博物馆始建于2013年12月，2016年5月正式对外开放，以传承世博遗产、发扬世博精神、保存世博精髓为宗旨。
1,上海蔡伯昌老彩票博物馆,121.61657,31.16129,沔北路58弄188-1号,喜爱收藏的蔡伯昌，三十多年时间走遍了全国不少地方，收藏了2000多张从清朝至新中国成立前的各种彩票，在朋友 “独乐不如众乐”的鼓动下，蔡伯昌经营起老彩票博物馆。
2,上汽荣威儿童文化中心,121.49448,31.19647,苗江路800号,上海儿童艺术剧场前身为上海世博会上汽通用馆，经改造后，2013年6月正式启用，是目前中国最大的专业儿童艺术剧场。
3,上海云部落 TMT 产业园,121.41786,31.07421,闵行区颛桥镇,上海云部落TMT产业园是是上海第一家以“TMT” (Technology、Media、Telecom)为产业导向的“四新”园区。
3,M50艺术产业园,121.44864,31.24762,莫干山路50号,M50创意园原为上海春明粗纺厂，拥有自上世纪30年代至90年代各个历史时期的工业建筑，是目前苏州河畔保留最为完整的民族纺织工业建筑群，也是上海最早和目前最具规模和影响力的创意产业园区之一。
1,嘉定竹刻博物馆,121.25136,31.38317,南大街321号,嘉定竹刻博物馆的120件展品分别来自上海博物馆、嘉定博物馆和个人收藏，除了少量明代作品外，大多是清代艺术精品。
1,徐光启纪念馆,121.43407,31.18922,南丹路17号,徐光启纪念馆，为纪念明代著名科学家徐光启，也为了让他的文史地位和近代科学思想有“落脚”之地，2005年初，利用明代宅第建筑“南春华堂”将光启公园改建为徐光启纪念馆，成为上海极具历史底蕴的科普教育基地之一。
4,上海海昌极地海洋公园,121.90742,30.91479,南汇新城滴水湖畔,上海海昌极地海洋世界规划包含12个展示场馆、4个大型海洋动物互动体验项目、3个特效影院以及15项大中型游乐设备，定位国际化海洋生命文化主题体验综合体。
2,上海商城剧院,121.45166,31.22638,南京西路1376号,作为沪上第一幢外商投资的综合性建筑群，上海商城以其独特的建筑风格构成了申城现代化的标志，其中的上海商城剧院更为整幢楼群中独具特色的窗口。
1,上海当代艺术馆,121.47282,31.23145,南京西路231号人民公园,上海当代艺术馆创立于2005年，是一家民营美术馆。艺术馆展馆的一楼与二楼是展厅，配备有温度湿度控制系统，常年举办各类当代艺术和设计展览，展览公共服务区域包括顾客服务台和艺术商店，三楼还设有艺术空间和MoCA on the Park餐厅。
1,上海市历史博物馆,121.470929,31.230971,南京西路325号,上海市历史博物馆成立于1983年9月，前身为上海历史文物陈列馆，是综合反映上海地方历史的地志性博物馆。
2,上海木偶团仙乐斯演展厅,121.46905,31.23153,南京西路388号,上海木偶剧团成立于1960年6月1日，仙乐斯展示厅主题为“传承千年，执掌春秋”的中国木偶皮影经典展示，介绍具有两千多年历史的我国最有代表性的传承千年的品种繁多的木偶和皮影的发展过程。
2,乡音860剧场,121.460225,31.23057,南京西路860弄1号,上海评弹团所属演出场地，又名乡音书苑。
4,上海野生动物园,121.72216,31.05522,南六公路178号,上海野生动物园是由上海市人民政府和中国国家林业局合作建设的中国首座国家级野生动物园，于1995年11月18日正式对外开放。
3,南苏河创意产业集聚区,121.46473,31.24077,南苏州路1295-1305号,“南苏河”原为苏州河南岸的废弃老仓库，1999年起由台籍著名建筑设计师登琨艳先生领衔，对老仓库进行了保护性的开发改造。2004年获得联合国科教文组织颁发的“亚太地区文物遗产保护奖”，这也是中国大陆地区当时唯一获此殊荣的建筑。
2,新光影艺苑,121.47653,31.23678,宁波路580号,新光影艺苑原名新光大戏院，2009年经改建，携手现代人剧社，挂牌沪上首家悬疑剧场，成为沪上小剧场演出“熟地”。
2,中国大戏院,121.47653,31.23767,牛庄路704号,中国大戏院原名三星舞台，1930年2月5日开幕，几度更名，1992年恢复中国大戏院名。经过整体改造，中国大戏院于2017年年底重新开业，恢复剧院功能。
1,朱纪瞻艺术馆,121.48628,31.27428,欧阳路580号,朱屺瞻艺术馆成立于1995年，是以中国当代著名书画大师朱屺瞻先生命名的一座公立美术馆。
3,上海创意联盟产业园,121.53228,31.26095,平凉路1055号,创意联盟定位为创意类、技术开发类企业的现代化办公综合场所，主要入驻对象为创意类、技术开发类和现代服务类企业。
2,沪东工人文化宫,121.53964,31.26514,平凉路1500号,上海市总工会沪东工人文化宫简称“东宫”，坐落于平凉路1500 号，始建于1956年，是服务职工的公益性文化事业单位。
3,东纺谷创意园,121.53115,31.25989,平凉路988号,东纺谷创意园是由上海纺织控股集团和杨浦区人民政府联合建立的纺织高新技术创意园。
2,大宁剧院,121.45698,31.28361,平型关路1222号,上海大宁剧院是苏州河以北的第一座综合性专业剧场，于2011年5月开幕，是沪上有口皆碑的高品质演出场馆之一。
1,土山湾博物馆,121.43435,31.17485,蒲汇塘路55号,上海土山湾博物馆于2010年6月12日（中国文化遗产日）正式向社会开放。博物馆是由土山湾旧址的三层红楼底层和幕墙玻璃两部分组成，分牌楼厅、徐家汇厅、土山湾厅和传承影响四大主题展厅。
1,张充仁纪念馆,121.35377,31.15233,蒲溪广场75号,张充仁纪念馆成立于2003年3月，建筑为清江南码头墙走马楼风格，设置了《艺坛起步》《东方英才》《画室生涯》《雕塑春秋》《晚霞绚烂》和《德艺留馨》6个展室反映张充仁的艺术人生。
1,上海民政博物馆,121.49541,31.21026,普育西路105号,上海民政博物馆是中国第一家民政博物馆，也是国内首家民政行业综合性博物馆，由序厅、历史文化、业务专题、区县民政、民政英模和民政信息六大板块构成。
3,上海青园文化创意产业园区,121.17457,31.14685,青浦区赵巷镇崧泽村,上海青园文化创意产业园区原为青浦现代印刷产业园，以现代印刷产业为主导。
3,大柏树930科技创意园 ,121.49194,31.29119,曲阳路930号,大柏树930科技创意园以基础软件服务、互联网信息服务、工程管理服务为产业定位目标，以高端工程技术服务为特色，已成为虹口区知名创意产业园。
1,上海博物馆,121.47516,31.22873,"人民大道201号
",上海博物馆创建于1952年，建筑造型为方体基座与圆形出挑相结合，具有“天圆地方”的寓意。
2,上海大剧院,121.47203,31.22928,人民大道300号,上海大剧院成立于1998年8月，内设大、中、小三个剧场。整个建筑宛如音符串成的水晶宫殿，采用目前世界上最先进的全自动机械舞台，拥有票务中心、芭蕾排练厅、乐队排练厅、贵宾厅等完备的附属设施。
1,上海公安博物馆,121.46843,31.19843,瑞金南路518号,上海公安博物馆是国内首座公安专题博物馆，于1999年正式对外开放。设序馆、公安史馆、刑事侦查馆、交通史馆、英烈馆、警务交流馆和消防模拟演练馆等11个分馆，记录了1854年上海建立警察机构100多年来的历史沿革和业绩。
3,泰晤士文化创意产业园,121.19591,31.03368,三新北路900弄,泰晤士小镇是一个具有居住、旅游、休闲等多项功能的大型社区。
1,松江美术馆,121.19822,31.03323,三新北路900弄601号,松江美术馆是按现代多功能目标规划建设的当代型美术博物馆，是一个不以营利为目的、为社会和社会发展服务、向公众开放的永久性文化事业机构。
1,程十发艺术馆,121.22766,31.0071,山中路458号,程十发艺术馆于2009年4月10日程十发先生88周年诞辰日正式开馆，是为纪念中国海派国画艺术大师程十发先生在其家乡而设的一座公立艺术馆。
1,丰子恺旧居陈列室,121.45907,31.22032,陕西南路39弄93号,丰子恺先生生前取名“日月楼”，现在名为“丰子恺旧居陈列室”。
3,上海动漫衍生产业园,121.39665,31.31142,上大路668号,作为国内唯一的动漫衍生产业园区，上海市近四分之一国家动漫企业落户在园区。
1,中华艺术宫（上海美术馆）,121.49441,31.18413,上南路205号,中华艺术宫于2012年10月1日开馆，是以收藏保管、学术研究、陈列展示、普及教育和对外交流为基本职能的艺术博物馆。
2,虹桥天地演艺中心,121.31565,31.1934,绍虹路33号,虹桥天地演艺中心是国内首个位于交通枢纽商业中心内的专业演出建筑。这座演艺中心可以满足各类文化演出活动的使用需求，包括品牌发布、产品展览、主题活动等。
4,上海欢乐谷,121.21573,31.09623,佘山林湖路888号,上海欢乐谷是华侨城集团投资40亿元打造的主题公园，于2009年9月12日建成开业，设有阳光港、欢乐时光、上海滩、香格里拉、欢乐海洋、金矿镇和飓风湾七大主题区。
1,中国航海博物馆,121.92029,30.89608,申港大道197号,上海中国航海博物馆成立于2010年7月，馆内以“航海”为主题，“博物”为基础，分设航海历史、船舶、航海与港口、海事与海上安全、海员、军事航海六大展馆。
3,创异工房,121.25995,31.08947,沈砖公路6000号,创异工房是知名的汽车广告摄影和嘉年华活动场所、艺术家沙龙场所和工业设计、家居家具、服装服饰企业的产品秀场。
2,梅赛德斯-奔驰文化中心,121.49247,31.18856,世博大道1200号,梅赛德斯・奔驰文化中心是2010年上海世博会最重要的永久性场馆之一，在世博会期间承担各类大型演出和活动，满足世博会大型文艺演出需求。
1,上海民生现代美术馆,121.4792,31.18472,世博大道1929号,上海民生现代美术馆的前身是2010年上海世博会法国国家馆，世博会结束后，这座建筑升级成为一座集人文与艺术于一体、致力于国际当代艺术交流和创作、服务于上海市民和国内外访客的综合性美术馆。
1,上海科技馆,121.541974,31.217776,世纪大道2000号,上海科技馆于2001年12月、2005年5月分别开放一、二期展览。建筑呈西低东高、螺旋上升的不对称结构，寓意着自然历史和人类文明的演进方式。
1,上海印刷博物馆,121.54332,31.28227,水丰路100号,上海印刷博物馆于1998年落成，是首批上海高校民族文化博物馆之一，是上海工业旅游博物馆，也是上海市科普教育基地。
3,昂立设计创意园,121.50474,31.27819,四平路1188号,昂立设计创意园原为远洋广场，以高校资源、优势企业和社区资源共同融合，形成创新合力，并成功创办的高层次管理服务平台。
3,环同济设计创意集聚区,121.500418,31.280309,四平路1500号,环同济设计创意集聚区以同济大学设计创意学科的资源优势为智力支持，形成以知识、服务为纽带的创造力产业集聚区以及产业与城市互动发展的和谐空间。
3,尚之坊时尚文化创意园,121.18166,31.17516,崧泽大道6066号,尚之坊时尚文化创意园坐落于上海大虹桥商务圈核心地段，重点支持高新技术等产业，围绕产业升级构建专业创新创业公共服务平台。
3,创智天地,121.51325,31.30498,淞沪路234号,创智天地由杨浦区政府与瑞安房地产联手打造，比邻10余所高等学府，配合上海市政府“科教兴市”发展战略，形成以信息产业为主的高新技术产业集群。
3,半岛1919文化创意产业园,121.48784,31.36753,淞兴西路258号,半岛1919园区的前身是上海第八棉纺织厂，至今仍完好地保存了原厂不同历史时期建造的各式建筑，其中部分被列为受保护的历史建筑。半岛1919园区不仅将成为上海具有时尚元素的国际创意园，而且还将成为吴淞口滨江观光景观区。
1,上海儿童博物馆,121.41293,31.19376,宋园路61号,上海儿童博物馆成立于1996年5月29日，座落于国家名誉主席宋庆龄陵园东南部，是全国首座面向3-10岁儿童的专业博物馆。
3,田子坊,121.46848,31.20823,泰康路210弄,田子坊是由上海特有的石库门建筑群改建后形成的时尚地标性创意产业聚集区，也是不少艺术家的创意工作基地，人们往往将田子坊称为“新天地第二”。
1,上海琉璃艺术博物馆,121.47024,31.20784,泰康路25号,上海琉璃艺术博物馆成立于2006年，是上海唯一的琉璃艺术博物馆，也是中国及亚洲第一个全面展示琉璃艺术的行业博物馆。
3,谈家28-文化信息商务港 ,121.4221,31.2344,谈家渡路28号,谈家28-文化信息商务港是以科技信息、研发设计为集聚方向的高科技产业园区，搭建了“产学研”、“投融资”、“信息服务”、“企业孵化”等多个子平台。
1,上海铁路博物馆,121.47618,31.24972,天目东路200号,上海铁路博物馆于2004年，是沪宁铁路上海站（老北站）的原样，并在其原址上进行建设，现为上海市科普教育基地。
3,上海时尚园 ,121.40842,31.2105,天山路1718号,上海时尚园是一个充满时尚气息、活跃着众多时尚人才的创意产业园区。
1,朵云轩艺术中心,121.4474523,31.17437449,天钥桥路1188弄,是以中国元素为主打，以海派艺术为特色的全新艺术类文化空间。
3,D1国际创意空间,121.44517,31.17886,天钥桥路909号,D1国际创意空间前身为上海市果品公司冷冻库，2007年开始对该工业老建筑进行全面改造。园区建筑由三座建筑组成，内部布局保持原有仓库大空间布局，可为各产业个体提供创意发挥的自由空间。
3,越界创意园,121.41242,31.16951,田林路140号,越界创意园前身为上海金星电视一厂，2007年7月开始包装改建，2009年底完成一期、二期整体包装改建。目前可供租赁面积约九万平方米，是上海最大的单体创意产业园区之一。
1,上海无线电博物馆,121.40725,31.16861,田林路200号,上海无线电博物馆，以无线电为主要展示内容的博物馆，由上海仪电（集团）有限公司投建，藏品约2300件，涵盖收音机、录音机、电视机、收发报机等十余个品类。
1,上海鲁迅纪念馆,121.4843,31.26614,甜爱路200号,上海鲁迅纪念馆成立于1951年1月，原与山阴路上海鲁迅故居毗邻，1956年9月迁入今鲁迅公园。纪念馆既保留原二层庭院式的江南民居风格的建筑特色，同时又融入了现代博物馆的功能，是新中国建立后第一个人物性纪念馆，也是新中国成立后第一个名人纪念馆。
3,湖丝栈创意产业园,121.42201,31.22544,万航渡路1384弄12号,湖丝栈创意产业园原信昌丝厂等近十家丝绸加工工场，位于上海苏州河畔，因缫丝蚕茧来自浙江湖州而得名，是上海最早从事丝绸加工的企业，至今已有一百多年的历史。
3,周家桥文化创意产业园 ,121.40616,31.21989,万航渡路2453号,周家桥创意产业园原厂为亚洲电焊条厂，入注企业多为设计创意公司。
3,文定生活创意产业园 ,121.4315,31.18451,文定路258号,作为一个汇聚世界品牌的时尚家居旗舰中心，“文定生活”是上海第一家集奢华家居及设计展示服务于一体的采购终点，形成了集艺术文化、创意设计和购物生活体验为一体的个性空间。
1,中国会计博物馆,121.19889,31.04364,文翔路2800号,中国会计博物馆是全球第一家会计专业博物馆，旨在利用博物馆强大的文化传承和宣传教育功能，进行会计历史文化遗存的抢救性收藏和保护，弘扬会计历史文化，促进会计学术研究与交流。
1,上海张闻天故居,121.76298,31.13171,闻居路50号,张闻天故居始建于1892年，是一座具有江南农村特色的一正两厢房砖木结构的民宅。
1,上海地铁博物馆,121.36599,31.16994,吴中路1779号,上海地铁博物馆以地铁发展历史、地铁功能、地铁文化，地铁安全、世界地铁等几大板块，细述上海地铁的故事。
1,上海农垦博物馆,121.677629,30.864315,五四公路1256号,上海农垦博物馆建筑平面像一把铮亮的镰刀，象征收获累累硕果。馆内分为“围垦造田”、“青春年华”和“改革开放”三大版块。
2,沪西工人文化宫,121.42175,31.23946,武宁路225号,沪西工人文化宫，简称“西宫”，始建于1959年，并于1961年初正式开放，曾经是上海面积最大的园林式工人文化宫，和上海市文化宫（市宫）、沪东工人文化宫（东宫）并称为上海“三大宫”。
3,桃浦文化创意产业园 ,121.379902,31.278397,武威东路1518号,桃浦文化创意产业园致力于打造文化艺术展览平台、引导孵化培育平台、增值服务平台、国际人才交流服务平台。
1,上海市陶行知纪念馆,121.40951,31.27642,武威东路76号,上海市陶行知纪念馆于1986年10月18日正式对外开放，设有进行入团（队）宣誓仪式等集体活动的场地和播放专题录像、举行各类专题学术报告会的多功能厅。
3,聚为园,121.42366,31.21363,武夷路351号,聚为园（武夷商务中心）经过多次的改建、装饰，由破旧的老厂房变成的商务办公、影视制作、设计研发的创作园。
3,渡边物华园,121.4967,31.26008,物华路73号,物华园创意产业集聚区位于上海市繁华的北外滩区域，是创业型中小企业走向成功的理想写字楼。
1,梅尔尼科夫美术馆,121.464808,31.264434,西藏北路1351号,梅尔尼科夫美术馆是国内唯一以俄罗斯当代艺术大师梅尔尼科夫姓氏命名的艺术机构，系经大师法定继承人正式授权并经上海市政府批准成立。
2,上海市工人文化宫,121.47759,31.23051,西藏中路120号,上海市工人文化宫，简称“市宫”，前身为东方饭店，始建于1929年。市宫于1950年10月1日正式对外开放。
3,绿地阳光园,121.47915,31.27333,西江湾路500号,绿地・阳光园原上海宝钢建设有限公司，现是上海绿地建设（集团）有限公司投资开发和建设的创意产业园区。园区由四幢工业建筑和一幢大楼群房合抱而成，中间是绿化景观庭院。
1,上海天文博物馆,121.19311,31.09435,西佘山山顶,上海天文博物馆位于风景优美的松江西佘山国家森林公园景区内，其前身为法国天主教传教士建立于1900年的佘山天文台，它是中国第一座建有天文圆顶和拥有大型天文望远镜的现代天文台，我国近代天文学的重要发源地之一。
1,上海虹桥当代艺术馆,121.38781,31.2061,仙霞路650号,上海虹桥当代艺术馆于2009年10月正式开馆，主要功能为举办各种当代艺术和其他造型艺术展览，向公众进行美术教育，组织国际与国内的文化学术交流，举办艺术家沙龙并致力于当代艺术理论的研究与普及等。
1,上海孙中山故居纪念馆,121.46764,31.2159,香山路7号,上海孙中山故居纪念馆成立于1988年，由一幢欧式洋房改建而成，主要有孙中山故居和孙中山文物馆两个展示场所。
3,中环滨江128,121.54972,31.30768,翔殷路128号,"中环滨江128（上海理工大学国家大学科技园）原为远东印染厂,建造于90年代，后由上海理工大学、杨浦区人民政府、上海市科学技术协会共同发起改造成现代园区。"
1,上海黄炎培故居,121.567086,31.210593,新川路218号,原名沈家大院，为清朝内阁中书沈树镛祖上所建，宅内先后涌现了中国近代20多位名人。其中，黄炎培先生就诞生于此，馆内还收藏了一些黄炎培先生生前的一些书画作品和当年的手抄本。
1,上海南社纪念馆,121.494622,31.347017,新华中路139号,上海南社纪念馆于2007年5月31日正式向社会开放，原为姚光故居，建于1891年，前后4幢砖木结构二层楼，被评为区级文物保护单位。纪念馆综合反映了20世纪初中国先进知识分子参与社会革命及各种文化活动的史实。
4,安徒生童话乐园,121.5108,31.32308,新江湾城,上海安徒生童话乐园于2017年6月1日试营业，是经丹麦王国官方授权的全球首家以童话作家“安徒生”而命名的大型主题乐园，拥有全国第一家安徒生博物馆。
1,上海翥云艺术博物馆,121.15064,31.30933,新源路1375号,海翥云艺术博物馆是上海市第一批获得市文物局批准的民营博物馆。
3,源创创意园,121.45188,31.23257,新闸路1250号,源创创意园位于上海市静安区陕西北路600号，原是上海机床附件一厂的旧址，2008年底，上海全华资产管理有限公司对该址进行重新定位，改造为创意产业集聚区。
3,西岸创意园,121.42494,31.18806,徐虹中路20号,上海西岸创意园原址为上海汉森织造手帕厂，经意大利最负盛名的建筑设计公司TESKO重新构思和设计，园区整体风格在保留原厂房浑厚工业气息的同时增加了许多时尚创意元素，深具后工业美学气质。
1,上海市黄道婆纪念馆,121.44881,31.12421,徐梅路700号,上海市黄道婆纪念馆成立于2003年，主展厅展示黄道婆的生平事迹以及她对中国纺织事业作出的历史功绩，其他两个展厅分别展示不同时期的纺织工具和棉纺织品。
1,上海电信博物馆,121.49081,31.23322,延安东路34号,上海电信博物馆陈列主要分为五个部分，由三楼的电报通信、市内电话通信、无线通信、长途电话通信以及四楼的综合荟萃组成。
2,上海共舞台ET聚场,121.47924,31.22883,延安东路433号,上海共舞台ET聚场前身为上海共舞台，建于1927 年，初名齐天舞台，专演京剧，与人民大舞台、天蟾舞台、中国大戏院并称当时沪上“四大京剧舞台”。2012 年，正式更名“ET 聚场”，是一个集演出、沙龙、展览、餐饮、艺术及新科技的多元文化空间。
2,上海音乐厅,121.47797,31.22683,延安东路523号,上海音乐厅原名南京大戏院，建于1930年。上海音乐厅作为全国第一座音乐厅，一直是上海音乐活动的中心之一。
1,刘海粟美术馆,121.41946,31.20925,延安西路1609号,刘海粟美术馆于1995年3月16日建成并正式对外开放，原址位于上海西区虹桥，2012年9月迁至延安西路凯旋路口的海粟绿地内。美术馆外形设计取海老画作中“云海山石”之意境。刘海粟美术馆是我国首座以个人名字命名的省市级国家美术馆。
1,上海艺术品博物馆,121.49354,31.33632,延安西路1731号,上海艺术品博物馆位于上海市核心区域风景如画的天山公园内，是中国国内第一家以艺术礼品为馆藏特色的专题性博物馆。
1,上海纺织服饰博物馆,121.41373,31.20301,延安西路1882号,博物馆以中国纺织服饰发展史和纺织服饰科普教育为主线，兼具科学普及、学术交流、学科教育、科学研究、社会服务的功能，体现了学术性和科普性的结合、纺织与服饰的融合等特点。
2,少年宫小伙伴剧场,121.444,31.22155,延安西路64号,小伙伴剧场分两层看台，拥有专业级舞台与一流的灯光、音响设备，内饰装潢清新雅致。小伙伴剧场现已成为周末家庭亲子活动，以及沪上少儿文化交流和展示的重要场所之一。
3,98创意园,121.44185,31.22833,延平路98号,98创意园位原上海电器厂，始建于1967年，转制搬迁后，对原有厂房加固、改造，致力于打造工业设计、品牌设计创意园区。
1,上海元代水闸遗址博物馆,121.43032,31.25965,延长西路619号,上海元代水闸遗址博物馆始建于2012年，是迄今为止中国最大的元代水利工程遗址，也是国内已考古发掘出的规模最大、做工最好、保存最完整的元代水闸。
3,新华文化创新科技园,121.44547,31.2664,延长中路801号,园区以数字出版、文化创意、动漫及数字内容三个产业主导方向，通过引领传统文化产业与现代数字技术、多媒体技术等的结合，提升上海文化产业的创新能力。
3,上海国际时尚中心,121.558715,31.270877,杨树浦路2866号,上海国际时尚中心定位为国际时尚业界互动对接的地标性载体和营运承载基地，具备时尚多功能秀场、接待会所、创意办公、精品仓、公寓酒店和餐饮娱乐等六大功能。
2,万代南梦宫上海文化中心,121.43994,31.24896,宜昌路179号,万代南梦宫上海文化中心（原浅水湾文化艺术中心），是西部集团结合国棉二厂地块改建开发，立足长寿商业区建设，打造的苏州河文化长廊上的时尚新地标。
3,E仓文化创意产业园,121.43046,31.24288,宜昌路751号,E仓拥有10栋源自上个世纪30年代到50年代风情各异的厂房，拥有高大的空间和亲水的特质，因而成为创意产业的家园。
3,上海普天信息产业园,121.41795,31.17541,宜山路700号 ,上海普天信息产业园致力于打造一个信息产业集聚的精品科技产业园。
3,上海国际设计交流中心,121.52475,31.26484,逸仙路3000号,上海国际设计交流中心是以工业设计为主导的生产性服务业集聚区，是目前国内第一家以工业设计为主题的大型特色产业园区。
3,上海国际工业设计中心,121.49771,31.34027,逸仙路3000号,上海国际工业设计中心原是上汽集团下属的汽车零配件老厂房，2009年通过对老厂房进行改造，建成了特色产业园区。
1,上海喜玛拉雅美术馆,121.56193,31.20878,樱花路869号,上海喜玛拉雅美术馆位于上海大浦东人文核心地块喜玛拉雅中心内，前身为创建于2005年的上海证大现代艺术馆，是从事艺术收藏、展览、教育、研究与学术交流的民营非营利性公益艺术机构。
2,上海文化广场,121.46209,31.21258,永嘉路36号,上海市“人民文化广场”又名“上汽・上海文化广场”，筹建于1952年4月，由原逸园跑狗场改建而成，同年12月改称“文化广场”，是上海重要的群众性政治、文化活动中心之一。
1,上海淞沪抗战纪念馆,121.49517,31.40945,友谊路1号,上海淞沪抗战纪念馆于2000年1月建成开馆，是全国唯一反映两次淞沪抗战的专题纪念馆。2014年被命名为首批国家级抗战纪念设施（遗址）。
1,上海巴塞当代美术馆,121.44341,31.23642,余姚路66号,上海巴塞当代美术馆成立于2014年初，由上海巴塞艺术中心建立，是国内专门收藏、展览、研究当代艺术的研究机构。
1,中共上海地下组织斗争史陈列馆暨刘长胜故居,121.44656,31.22489,愚园路81号,中共上海地下组织斗争史陈列馆暨刘长胜故居，是上海工人运动和地下党的杰出领导人之一刘长胜同志1946年至1949年的居住地，也是中共上海局秘密机关旧址之一。陈列馆是一幢率先运用建筑整体加固推移技术的砖木结构的洋房。
3,七宝老街民俗文化产业基地,121.35361,31.15413,浴堂街7号,七宝老街位于上海市闵行区中部，集游览、观光、餐饮、休闲为一体，属江南水乡历史风貌型旅游度假区。
4,飞行家主题乐园,121.47433,31.17931,原世博园区C05地块南侧,飞行家主题园是全国唯一以航空文化为传播核心，并外延辐射多个领域的航空文化推广平台。
2,上海戏曲艺术中心,121.45227,31.20534,岳阳路168号,上海戏曲艺术中心成立于2011年12月，是中共上海市委宣传部领导下的非营利性的戏曲院团集群，是以保护、传承、创新、发展传统戏曲艺术，推动上海戏曲事业健康发展为己任的公益服务性的事业单位。
1,上海中国画院美术馆,121.45282,31.20458,岳阳路197号,上海中国画院美术馆是上海地区的中国书画艺术创作、研究中心，是公益性文化事业单位。
3,加减乘除创意园,121.36282,31.22715,云岭西路689弄230号,上海加减乘除创意园位于大虹桥枢纽的关键廊道，
3,上海张江文化创意产业园区,121.64069,31.07579,张东路1387号,上海张江文化产业园区是以科技研发、金融支持、创新服务为特色，集聚龙头企业和规模效应成效显著，在文化与科技、创新、金融、贸易结合上优势明显，具有强大文化传播力的国家级文化产业示范园区。
1,上海动漫博物馆,121.61176,31.21217,张江路69号,上海动漫博物馆始建于2010年4月，是中国第一家集展示、交流、科普教育、实践互动、产业促进等多功能于一体的大型现代化专业动漫展馆。
1,中国武术博物馆,121.52823,31.31367,长海路399号上海体育学院内,中国武术博物馆展示内容主要以中国的国粹“武术”为主题，由拳械厅、历史厅、临展厅和“科学看武术”等展厅构成，是一座集聚人文历史和民族精神的现代博物馆。
1,上海玻璃博物馆,121.47192,31.34386,长江西路685号,上海玻璃博物馆于2011年建成开馆，其前身是上海玻璃仪器一厂，2015年4月上海玻璃博物馆被批准为国家4A级旅游景区。从熔炉车间到艺术空间，上海玻璃博物馆的建筑在一甲子的发展中经历了工业化到现代化的转型。
3,长宁多媒体产业园 ,121.41788,31.21765,长宁路1027号 ,上海多媒体产业园创立于2002年3月，由上海市科学技术委员会批准建立，是整合办公、商务、住宅等项目为一体的新生代园区。
3,景源时尚产业园,121.43192,31.23858,长寿路652号,景源创意园原是上海市纺织原料公司办公楼和上海纺织原料公司长寿路仓库库房，内有十四幢建造年代从上世纪20年代末至90年代初各时期的工业建筑。2008年对景园创意园进行了保留历史风貌的改造。
3,上海长阳谷创意产业园,121.53482,31.27156,长阳路1687号,上海长阳谷创意产业园是一家高新技术产业园，整体呈现为院落式布局，由大小7幢建筑构成。
1,上海犹太难民纪念馆,121.50913,31.25431,长阳路62号,上海犹太难民纪念馆是犹太摩西会堂旧址，始建于1927年，是为纪念二战期间犹太难民在上海生活居住历史的主题纪念馆。
1,中国烟草博物馆,121.51832,31.26165,长阳路728号,上海中国烟草博物馆总建筑面积9617平方米。建筑外形设计以大型商船和玛雅神庙为设计理念，构成了长约80米、宽约25米、高约30米的外形结构，是世界上规模最大的烟草博物馆。
3,创邑河,121.40977,31.22214,真北路988号,创邑河创意产业园前身是建于上世纪30年代的国棉五厂，是长宁区政府凯旋路多媒体走廊重点项目。
1,上海隧道科技馆,121.4992,31.2214,中华路268号,科技馆由三层楼面和一个序厅组成，再现了大型泥水平衡盾构内部实景，隧道上层实景区通过投影仪大屏幕和在隧道内设置的真实车辆隧道穿行模拟增加了其真实效果。
3,上海天地软件园 ,121.39182,31.23446,中江路879弄,上海天地软件园是一个以软件产业为特色的园区，主要面向广大软件企业，整合优质社会资源，搭建为企业提供一体化服务的中介服务平台。
4,上海JOYPOLIS,121.411939,31.231975,中山北路3300号环球港,JOYPOLIS是集聚了日本株式会社世嘉常年累积的电子娱乐开发技术与设施运营经验的室内主题乐园，上海JOYPOLIS是其海外授权产品，概念为融合了“Digital”和“Real”的“DigitaReal”。
3,花园坊,121.46634,31.21381,中山北一路121号,花园坊是上海乃至全国首家创意产业与新型节能环保结合的专业性主题产业园区。
1,松江博物馆,121.24637,31.00681,中山东路233号,松江博物馆始建于1915年1月24日，原名松江县教育图书博物馆，经过多次组建和扩建，于2004年11月在松江区中山东路正式对外开放，是一所综合性地方博物馆。
2,宛平艺苑,121.45111,31.18506,中山南二路857号、859号,宛平剧场始建于1988年。2015年5月，宛平剧场在原址上推倒重建，预计2019年下半年将建成。宛平剧场的整体造型如海派玉雕一般玲珑剔透；外墙立面如同徐徐展开的中国折扇。
3,幸福码头,121.50458,31.21117,中山南路1029号,上海滩总部型创意产业集聚区位于黄浦区南外滩地区，以塑造“幸福码头品牌工坊”高端品牌和形象为目的，积极引进国内外总部型、品牌性企业。
1,上海滩大美术馆,121.50142,31.21033,中山南路1228号,上海滩大美术馆是一个从事艺术展览、教育、收藏、研究、学术交流的民营公益艺术机构。
3,老码头创意园区,121.48985,31.25535,中山南路505号,上海滩总部型创意产业集聚区位于黄浦区南外滩地区，该园区由多幢房屋、各具不同特色的园区组成，包括三个子园区，即“外码头”、“老码头”和“幸福码头”三个园区。
1,上海消防博物馆,121.41109,31.21814,中山西路229号,上海消防博物馆是目前国内一流且具有世界先进水平的专业博物馆，现有藏品21000余件，包括众多极具史料价值的近代上海消防文物，以及一个多功能的消防科技教育体验馆，使用了目前国际一流的高科技展示技术，包括动感4D影院、虚拟逃生体验空间、互动虚拟火灾实验室等。
1,上海韬奋纪念馆,121.47139,31.21444,重庆南路205弄53-54号,上海韬奋纪念馆于1958年建成并对外开放，是两幢新式里弄建筑。纪念馆是以韬奋故居为基础建立的人物性纪念馆，可分为韬奋生平事迹陈列和韬奋故居两个部分。
2,白玉兰剧场,121.47211,31.20968,重庆南路308号,白玉兰剧场观众厅有座位642座，航空高背座椅舒适，拥有SR声道立体声放映设备，双红光立体声还音系统。
3,南上海文化创意产业园,121.45357,31.05396,庄行镇张塘村,南上海文化创意产业园园区打造以陶瓷艺术为核心的文化创意全产业链体系，实现创意设计的市场化和产业化运作，建设文化艺术创作、文化展示交流、文化创意服务和文化产品交易四大平台。
1,张江当代艺术馆,121.58459,31.20325,祖冲之路419号,张江当代艺术馆于2006年12月建成并正式对外开放，是融创作展示、艺术品收藏、教育交流和商务配套于一体的综合性公共文化服务平台。
